{
  "type": "FeatureCollection",
  "features": [
    {
      "type": "Feature",
      "properties": {
        "norad_id": 36036,
        "name": "SMOS",
        "group": "resource",
        "lat": 14.19774998300609,
        "lon": -6.310714944474578,
        "alt_km": 760.1701982625955,
        "timestamp": "2025-12-12T11:38:31.072949+00:00",
        "meta_object_name": "SMOS",
        "meta_object_id": "2009-059A",
        "meta_epoch": "2025-12-12T02:32:09.754080",
        "meta_mean_motion": 14.39740356,
        "meta_eccentricity": 0.0001103,
        "meta_inclination": 98.438,
        "meta_ra_of_asc_node": 171.1634,
        "meta_arg_of_pericenter": 85.0257,
        "meta_mean_anomaly": 275.1057,
        "meta_ephemeris_type": 0,
        "meta_classification_type": "U",
        "meta_norad_cat_id": 36036,
        "meta_element_set_no": 999,
        "meta_rev_at_epoch": 84653,
        "meta_bstar": 0.00020528,
        "meta_mean_motion_dot": 6e-06,
        "meta_mean_motion_ddot": 0,
        "tle_line1": "1 36036U 09059A   25346.10566845  .00000600  00000+0  20528-3 0  9991",
        "tle_line2": "2 36036  98.4380 171.1634 0001103  85.0257 275.1057 14.39740356846532"
      },
      "geometry": {
        "type": "Point",
        "coordinates": [
          -6.310714944474578,
          14.19774998300609
        ]
      }
    },
    {
      "type": "Feature",
      "properties": {
        "norad_id": 36110,
        "name": "YAOGAN-7",
        "group": "resource",
        "lat": -43.7032406443553,
        "lon": -124.0030338466685,
        "alt_km": 629.5090189429338,
        "timestamp": "2025-12-12T11:38:31.072959+00:00",
        "meta_object_name": "YAOGAN-7",
        "meta_object_id": "2009-069A",
        "meta_epoch": "2025-12-12T03:42:57.069216",
        "meta_mean_motion": 14.77731296,
        "meta_eccentricity": 0.0023382,
        "meta_inclination": 98.0301,
        "meta_ra_of_asc_node": 227.9139,
        "meta_arg_of_pericenter": 283.2856,
        "meta_mean_anomaly": 76.5747,
        "meta_ephemeris_type": 0,
        "meta_classification_type": "U",
        "meta_norad_cat_id": 36110,
        "meta_element_set_no": 999,
        "meta_rev_at_epoch": 86200,
        "meta_bstar": 0.00015759,
        "meta_mean_motion_dot": 1.081e-05,
        "meta_mean_motion_ddot": 0,
        "tle_line1": "1 36110U 09069A   25346.15482719  .00001081  00000+0  15759-3 0  9991",
        "tle_line2": "2 36110  98.0301 227.9139 0023382 283.2856  76.5747 14.77731296862008"
      },
      "geometry": {
        "type": "Point",
        "coordinates": [
          -124.0030338466685,
          -43.7032406443553
        ]
      }
    },
    {
      "type": "Feature",
      "properties": {
        "norad_id": 36605,
        "name": "TANDEM-X",
        "group": "resource",
        "lat": 16.192111459737774,
        "lon": 174.04536810495281,
        "alt_km": 508.9908120644868,
        "timestamp": "2025-12-12T11:38:31.072970+00:00",
        "meta_object_name": "TANDEM-X",
        "meta_object_id": "2010-030A",
        "meta_epoch": "2025-12-11T11:12:43.510464",
        "meta_mean_motion": 15.19157824,
        "meta_eccentricity": 0.00018635,
        "meta_inclination": 97.4452,
        "meta_ra_of_asc_node": 350.866,
        "meta_arg_of_pericenter": 82.9447,
        "meta_mean_anomaly": 277.1999,
        "meta_ephemeris_type": 0,
        "meta_classification_type": "U",
        "meta_norad_cat_id": 36605,
        "meta_element_set_no": 999,
        "meta_rev_at_epoch": 85814,
        "meta_bstar": 0.00012772132,
        "meta_mean_motion_dot": 2.617e-05,
        "meta_mean_motion_ddot": 0,
        "tle_line1": "1 36605U 10030A   25345.46717026  .00002617  00000+0  12772-3 0  9993",
        "tle_line2": "2 36605  97.4452 350.8660 0001863  82.9447 277.1999 15.19157824858146"
      },
      "geometry": {
        "type": "Point",
        "coordinates": [
          174.04536810495281,
          16.192111459737774
        ]
      }
    },
    {
      "type": "Feature",
      "properties": {
        "norad_id": 36795,
        "name": "CARTOSAT-2B",
        "group": "resource",
        "lat": -61.328868403772695,
        "lon": -158.96534149626126,
        "alt_km": 649.3869199682758,
        "timestamp": "2025-12-12T11:38:31.072980+00:00",
        "meta_object_name": "CARTOSAT-2B",
        "meta_object_id": "2010-035A",
        "meta_epoch": "2025-12-12T04:03:16.036704",
        "meta_mean_motion": 14.78725544,
        "meta_eccentricity": 0.0013108,
        "meta_inclination": 97.7853,
        "meta_ra_of_asc_node": 35.2178,
        "meta_arg_of_pericenter": 78.4942,
        "meta_mean_anomaly": 281.774,
        "meta_ephemeris_type": 0,
        "meta_classification_type": "U",
        "meta_norad_cat_id": 36795,
        "meta_element_set_no": 999,
        "meta_rev_at_epoch": 83221,
        "meta_bstar": 0.0005988,
        "meta_mean_motion_dot": 4.352e-05,
        "meta_mean_motion_ddot": 0,
        "tle_line1": "1 36795U 10035A   25346.16893561  .00004352  00000+0  59880-3 0  9994",
        "tle_line2": "2 36795  97.7853  35.2178 0013108  78.4942 281.7740 14.78725544832216"
      },
      "geometry": {
        "type": "Point",
        "coordinates": [
          -158.96534149626126,
          -61.328868403772695
        ]
      }
    },
    {
      "type": "Feature",
      "properties": {
        "norad_id": 36834,
        "name": "YAOGAN-10",
        "group": "resource",
        "lat": -42.600688527956336,
        "lon": 13.657616990473123,
        "alt_km": 622.0866073463876,
        "timestamp": "2025-12-12T11:38:31.072991+00:00",
        "meta_object_name": "YAOGAN-10",
        "meta_object_id": "2010-038A",
        "meta_epoch": "2025-12-12T05:39:48.254688",
        "meta_mean_motion": 14.84608419,
        "meta_eccentricity": 0.0001555,
        "meta_inclination": 97.9148,
        "meta_ra_of_asc_node": 6.0604,
        "meta_arg_of_pericenter": 82.9782,
        "meta_mean_anomaly": 343.4607,
        "meta_ephemeris_type": 0,
        "meta_classification_type": "U",
        "meta_norad_cat_id": 36834,
        "meta_element_set_no": 999,
        "meta_rev_at_epoch": 82946,
        "meta_bstar": 0.00058428,
        "meta_mean_motion_dot": 4.884e-05,
        "meta_mean_motion_ddot": 0,
        "tle_line1": "1 36834U 10038A   25346.23597517  .00004884  00000+0  58428-3 0  9998",
        "tle_line2": "2 36834  97.9148   6.0604 0001555  82.9782 343.4607 14.84608419829463"
      },
      "geometry": {
        "type": "Point",
        "coordinates": [
          13.657616990473123,
          -42.600688527956336
        ]
      }
    },
    {
      "type": "Feature",
      "properties": {
        "norad_id": 37216,
        "name": "COSMO-SKYMED 4",
        "group": "resource",
        "lat": -61.453212382519,
        "lon": -26.938686477199607,
        "alt_km": 630.602619540774,
        "timestamp": "2025-12-12T11:38:31.073001+00:00",
        "meta_object_name": "COSMO-SKYMED 4",
        "meta_object_id": "2010-060A",
        "meta_epoch": "2025-12-12T04:04:14.203776",
        "meta_mean_motion": 14.82167044,
        "meta_eccentricity": 0.0001373,
        "meta_inclination": 97.8808,
        "meta_ra_of_asc_node": 167.5014,
        "meta_arg_of_pericenter": 76.7973,
        "meta_mean_anomaly": 283.3393,
        "meta_ephemeris_type": 0,
        "meta_classification_type": "U",
        "meta_norad_cat_id": 37216,
        "meta_element_set_no": 999,
        "meta_rev_at_epoch": 81686,
        "meta_bstar": 8.761e-05,
        "meta_mean_motion_dot": 6.46e-06,
        "meta_mean_motion_ddot": 0,
        "tle_line1": "1 37216U 10060A   25346.16960884  .00000646  00000+0  87610-4 0  9999",
        "tle_line2": "2 37216  97.8808 167.5014 0001373  76.7973 283.3393 14.82167044816865"
      },
      "geometry": {
        "type": "Point",
        "coordinates": [
          -26.938686477199607,
          -61.453212382519
        ]
      }
    },
    {
      "type": "Feature",
      "properties": {
        "norad_id": 37387,
        "name": "RESOURCESAT-2",
        "group": "resource",
        "lat": -78.62519251600631,
        "lon": 179.78143087752662,
        "alt_km": 830.8660528586433,
        "timestamp": "2025-12-12T11:38:31.073011+00:00",
        "meta_object_name": "RESOURCESAT-2",
        "meta_object_id": "2011-015A",
        "meta_epoch": "2025-12-12T03:39:10.575072",
        "meta_mean_motion": 14.21596886,
        "meta_eccentricity": 0.0006468,
        "meta_inclination": 98.7878,
        "meta_ra_of_asc_node": 49.7067,
        "meta_arg_of_pericenter": 44.2209,
        "meta_mean_anomaly": 315.9484,
        "meta_ephemeris_type": 0,
        "meta_classification_type": "U",
        "meta_norad_cat_id": 37387,
        "meta_element_set_no": 999,
        "meta_rev_at_epoch": 75960,
        "meta_bstar": 0.00012842,
        "meta_mean_motion_dot": 2.37e-06,
        "meta_mean_motion_ddot": 0,
        "tle_line1": "1 37387U 11015A   25346.15220573  .00000237  00000+0  12842-3 0  9992",
        "tle_line2": "2 37387  98.7878  49.7067 0006468  44.2209 315.9484 14.21596886759606"
      },
      "geometry": {
        "type": "Point",
        "coordinates": [
          179.78143087752662,
          -78.62519251600631
        ]
      }
    }
  ]
}